ATLAS CENTAUR 2         
1 00694U 63047A   25317.73030583  .00008179  00000+0  99813-3 0  9993
2 00694  30.3511 123.4610 0549746 138.6814 225.6737 14.11491836115228
THOR AGENA D R/B        
1 00733U 64002A   25317.48575786  .00000565  00000+0  21916-3 0  9990
2 00733  99.1223 319.5216 0032078 235.9161 123.8977 14.33935151221642
SL-3 R/B                
1 00877U 64053B   25317.41716985  .00001036  00000+0  22648-3 0  9993
2 00877  65.0770 312.0827 0071123 330.2495  29.4568 14.61229180249803
SL-8 R/B                
1 02802U 67045B   25317.44873036  .00000824  00000+0  23570-3 0  9990
2 02802  74.0111 205.1547 0065400 240.9427 118.5170 14.45505036 72224
SL-8 R/B                
1 03230U 68040B   25317.60748987  .00009858  00000+0  74453-3 0  9998
2 03230  74.0314 190.7033 0023612  40.2630 320.0301 15.02262351 72578
OAO 2                   
1 03597U 68110A   25317.74256137  .00000685  00000+0  19001-3 0  9995
2 03597  34.9920 192.5401 0005726 340.0763  19.9703 14.47218440  2295
ISIS 1                  
1 03669U 69009A   25317.58740734  .00000372  00000+0  26697-3 0  9998
2 03669  88.4512 167.9840 1707413 323.6116  25.9808 11.30338512335419
SERT 2                  
1 04327U 70009A   25317.78480816  .00000080  00000+0  16595-3 0  9998
2 04327  99.2601 262.3074 0005666  98.1783 278.8686 13.58712283764156
SL-3 R/B                
1 05118U 71028B   25317.81775523  .00043050  00000+0  69316-3 0  9998
2 05118  81.2401 194.1438 0021268 346.7471  13.3215 15.52505155970649
ASTEX 1                 
1 05560U 71089A   25317.45710669  .00001521  00000+0  38754-3 0  9995
2 05560  92.7122 114.1491 0017674 114.0250 246.2808 14.50589363845450
SL-8 R/B                
1 05730U 71119B   25317.34486722  .00015733  00000+0  83134-3 0  9998
2 05730  73.8893  32.7312 0560965  22.9809 339.5406 14.35005299638784
OAO 3 (COPERNICUS)      
1 06153U 72065A   25317.88304183  .00001034  00000+0  21718-3 0  9997
2 06153  35.0055 237.0481 0007301 290.3395 125.3969 14.59870934829264
